ORBCOMM FM115           
1 41186U 15081H   25324.41023650  .00000915  00000+0  21153-3 0  9991
2 41186  47.0001  16.3862 0000465 324.6723  35.4134 14.62855793530640
ORBCOMM FM108           
1 41187U 15081J   25324.38066191  .00000901  00000+0  22854-3 0  9999
2 41187  47.0036  89.1687 0002788 295.3696  64.6900 14.58513613529599
ORBCOMM FM117           
1 41188U 15081K   25324.68949698  .00000700  00000+0  18556-3 0  9996
2 41188  47.0010  86.4213 0003149 307.3123  52.7475 14.58506703529685
ORBCOMM FM116           
1 41189U 15081L   25324.32800971  .00000693  00000+0  18380-3 0  9994
2 41189  47.0008 177.9086 0001667 170.5367 189.5550 14.58596518528449
